ONEWEB-0415             
1 51624U 22012C   24121.61398580 -.00000438  00000+0 -12918-2 0  9994
2 51624  87.8984 190.8246 0002476 100.4551 259.6855 13.10376762107452
ONEWEB-0416             
1 51625U 22012D   24121.54926115  .00000129  00000+0  33464-3 0  9993
2 51625  87.8992 190.8293 0002038  99.5615 260.5743 13.10378837108775
ONEWEB-0422             
1 51626U 22012E   24121.56498801 -.00000022  00000+0 -89761-4 0  9998
2 51626  87.9191 160.6082 0001822 117.4742 242.6575 13.17646458111402
ONEWEB-0423             
1 51627U 22012F   24121.55866686 -.00000081  00000+0 -24276-3 0  9992
2 51627  87.9193 160.6097 0001958  94.9803 265.1552 13.17649697111298
ONEWEB-0425             
1 51628U 22012G   24121.55923391  .00000809  00000+0  22814-2 0  9991
2 51628  87.8986 190.8124 0001717  91.1369 268.9955 13.10378509107481
ONEWEB-0428             
1 51629U 22012H   24121.61562052 -.00000446  00000+0 -13130-2 0  9992
2 51629  87.8989 190.8161 0002211 109.0388 251.0979 13.10373902107454
ONEWEB-0431             
1 51630U 22012J   24121.58562987 -.00000088  00000+0 -28896-3 0  9995
2 51630  87.8975 190.8223 0002701 112.1101 248.0313 13.10369320107505
